[{"OBJECT_NAME":"RANGE-A","OBJECT_ID":"2018-099R","EPOCH":"2026-03-09T16:56:29.908608","MEAN_MOTION":15.1245864,"ECCENTRICITY":0.00096737,"INCLINATION":97.4107,"RA_OF_ASC_NODE":114.1927,"ARG_OF_PERICENTER":340.4473,"MEAN_ANOMALY":19.6386,"EPHEMERIS_TYPE":0,"CLASSIFICATION_TYPE":"U","NORAD_CAT_ID":43773,"ELEMENT_SET_NO":999,"REV_AT_EPOCH":39745,"BSTAR":0.00032165687,"MEAN_MOTION_DOT":5.536e-5,"MEAN_MOTION_DDOT":0},{"OBJECT_NAME":"STARLINK-5009","OBJECT_ID":"2022-119AU","EPOCH":"2026-03-09T22:26:25.234656","MEAN_MOTION":15.08837825,"ECCENTRICITY":0.00015736,"INCLINATION":53.2182,"RA_OF_ASC_NODE":302.9145,"ARG_OF_PERICENTER":81.6237,"MEAN_ANOMALY":278.4934,"EPHEMERIS_TYPE":0,"CLASSIFICATION_TYPE":"U","NORAD_CAT_ID":53928,"ELEMENT_SET_NO":999,"REV_AT_EPOCH":19200,"BSTAR":2.808311e-6,"MEAN_MOTION_DOT":-2.43e-6,"MEAN_MOTION_DDOT":0}]
